{
  "type": "FeatureCollection",
  "features": [
    {
      "type": "Feature",
      "properties": {
        "norad_id": 46805,
        "name": "COSMOS 2547 (705K)",
        "group": "glo-ops",
        "lat": 64.39178787115299,
        "lon": -78.8429188096625,
        "alt_km": 19135.65446022956,
        "timestamp": "2025-12-16T23:36:36.457550+00:00",
        "meta_object_name": "COSMOS 2547 (705K)",
        "meta_object_id": "2020-075A",
        "meta_epoch": "2025-12-15T22:22:03.065088",
        "meta_mean_motion": 2.13100081,
        "meta_eccentricity": 0.00062311,
        "meta_inclination": 64.5961,
        "meta_ra_of_asc_node": 198.5898,
        "meta_arg_of_pericenter": 228.6409,
        "meta_mean_anomaly": 131.3861,
        "meta_ephemeris_type": 0,
        "meta_classification_type": "U",
        "meta_norad_cat_id": 46805,
        "meta_element_set_no": 999,
        "meta_rev_at_epoch": 4000,
        "meta_bstar": 0,
        "meta_mean_motion_dot": 1.08e-06,
        "meta_mean_motion_ddot": 0,
        "tle_line1": "1 46805U 20075A   25349.93197992  .00000108  00000+0  00000+0 0  9996",
        "tle_line2": "2 46805  64.5961 198.5898 0006231 228.6409 131.3861  2.13100081 40000"
      },
      "geometry": {
        "type": "Point",
        "coordinates": [
          -78.8429188096625,
          64.39178787115299
        ]
      }
    },
    {
      "type": "Feature",
      "properties": {
        "norad_id": 52984,
        "name": "COSMOS 2557 (706K)",
        "group": "glo-ops",
        "lat": -35.36073724256238,
        "lon": -58.991326437948864,
        "alt_km": 19108.868594354346,
        "timestamp": "2025-12-16T23:36:36.457562+00:00",
        "meta_object_name": "COSMOS 2557 (706K)",
        "meta_object_id": "2022-075A",
        "meta_epoch": "2025-12-16T02:19:59.587680",
        "meta_mean_motion": 2.13101825,
        "meta_eccentricity": 0.00136925,
        "meta_inclination": 64.4074,
        "meta_ra_of_asc_node": 320.933,
        "meta_arg_of_pericenter": 277.1025,
        "meta_mean_anomaly": 82.7371,
        "meta_ephemeris_type": 0,
        "meta_classification_type": "U",
        "meta_norad_cat_id": 52984,
        "meta_element_set_no": 999,
        "meta_rev_at_epoch": 2681,
        "meta_bstar": 0,
        "meta_mean_motion_dot": -7e-07,
        "meta_mean_motion_ddot": 0,
        "tle_line1": "1 52984U 22075A   25350.09721745 -.00000070  00000+0  00000+0 0  9990",
        "tle_line2": "2 52984  64.4074 320.9330 0013692 277.1025  82.7371  2.13101825 26818"
      },
      "geometry": {
        "type": "Point",
        "coordinates": [
          -58.991326437948864,
          -35.36073724256238
        ]
      }
    },
    {
      "type": "Feature",
      "properties": {
        "norad_id": 54031,
        "name": "COSMOS 2559 (707K)",
        "group": "glo-ops",
        "lat": 63.026220418541314,
        "lon": 70.47596130731874,
        "alt_km": 19124.97995260805,
        "timestamp": "2025-12-16T23:36:36.457573+00:00",
        "meta_object_name": "COSMOS 2559 (707K)",
        "meta_object_id": "2022-130A",
        "meta_epoch": "2025-12-14T00:56:40.379136",
        "meta_mean_motion": 2.13101379,
        "meta_eccentricity": 0.00117642,
        "meta_inclination": 64.3815,
        "meta_ra_of_asc_node": 321.0953,
        "meta_arg_of_pericenter": 192.3475,
        "meta_mean_anomaly": 167.6228,
        "meta_ephemeris_type": 0,
        "meta_classification_type": "U",
        "meta_norad_cat_id": 54031,
        "meta_element_set_no": 999,
        "meta_rev_at_epoch": 2474,
        "meta_bstar": 0,
        "meta_mean_motion_dot": -6.6e-07,
        "meta_mean_motion_ddot": 0,
        "tle_line1": "1 54031U 22130A   25348.03935624 -.00000066  00000+0  00000+0 0  9996",
        "tle_line2": "2 54031  64.3815 321.0953 0011764 192.3475 167.6228  2.13101379 24741"
      },
      "geometry": {
        "type": "Point",
        "coordinates": [
          70.47596130731874,
          63.026220418541314
        ]
      }
    },
    {
      "type": "Feature",
      "properties": {
        "norad_id": 54377,
        "name": "COSMOS 2564 (761)",
        "group": "glo-ops",
        "lat": -34.1658810419243,
        "lon": 37.45648620029827,
        "alt_km": 19113.077398321748,
        "timestamp": "2025-12-16T23:36:36.457584+00:00",
        "meta_object_name": "COSMOS 2564 (761)",
        "meta_object_id": "2022-161A",
        "meta_epoch": "2025-12-15T18:15:16.362720",
        "meta_mean_motion": 2.13102109,
        "meta_eccentricity": 0.0008585,
        "meta_inclination": 64.7384,
        "meta_ra_of_asc_node": 198.7985,
        "meta_arg_of_pericenter": 204.4271,
        "meta_mean_anomaly": 155.6126,
        "meta_ephemeris_type": 0,
        "meta_classification_type": "U",
        "meta_norad_cat_id": 54377,
        "meta_element_set_no": 999,
        "meta_rev_at_epoch": 2372,
        "meta_bstar": 0,
        "meta_mean_motion_dot": 1.07e-06,
        "meta_mean_motion_ddot": 0,
        "tle_line1": "1 54377U 22161A   25349.76060605  .00000107  00000+0  00000+0 0  9997",
        "tle_line2": "2 54377  64.7384 198.7985 0008585 204.4271 155.6126  2.13102109 23722"
      },
      "geometry": {
        "type": "Point",
        "coordinates": [
          37.45648620029827,
          -34.1658810419243
        ]
      }
    },
    {
      "type": "Feature",
      "properties": {
        "norad_id": 57517,
        "name": "COSMOS 2569 (703K)",
        "group": "glo-ops",
        "lat": -25.186023122819087,
        "lon": -88.68374319568768,
        "alt_km": 19128.13968256596,
        "timestamp": "2025-12-16T23:36:36.457596+00:00",
        "meta_object_name": "COSMOS 2569 (703K)",
        "meta_object_id": "2023-114A",
        "meta_epoch": "2025-12-15T18:34:28.815168",
        "meta_mean_motion": 2.13104018,
        "meta_eccentricity": 0.00106247,
        "meta_inclination": 65.1958,
        "meta_ra_of_asc_node": 78.8109,
        "meta_arg_of_pericenter": 286.9664,
        "meta_mean_anomaly": 72.9318,
        "meta_ephemeris_type": 0,
        "meta_classification_type": "U",
        "meta_norad_cat_id": 57517,
        "meta_element_set_no": 999,
        "meta_rev_at_epoch": 1835,
        "meta_bstar": 0,
        "meta_mean_motion_dot": -5.6e-07,
        "meta_mean_motion_ddot": 0,
        "tle_line1": "1 57517U 23114A   25349.77394462 -.00000056  00000+0  00000+0 0  9991",
        "tle_line2": "2 57517  65.1958  78.8109 0010624 286.9664  72.9318  2.13104018 18355"
      },
      "geometry": {
        "type": "Point",
        "coordinates": [
          -88.68374319568768,
          -25.186023122819087
        ]
      }
    },
    {
      "type": "Feature",
      "properties": {
        "norad_id": 63130,
        "name": "COSMOS 2584 (704K)",
        "group": "glo-ops",
        "lat": -55.112678661646974,
        "lon": 37.040132833876704,
        "alt_km": 19131.59374070469,
        "timestamp": "2025-12-16T23:36:36.457607+00:00",
        "meta_object_name": "COSMOS 2584 (704K)",
        "meta_object_id": "2025-042A",
        "meta_epoch": "2025-12-14T17:19:43.603680",
        "meta_mean_motion": 2.13103043,
        "meta_eccentricity": 0.00076907,
        "meta_inclination": 64.977,
        "meta_ra_of_asc_node": 79.0784,
        "meta_arg_of_pericenter": 217.9412,
        "meta_mean_anomaly": 142.0178,
        "meta_ephemeris_type": 0,
        "meta_classification_type": "U",
        "meta_norad_cat_id": 63130,
        "meta_element_set_no": 999,
        "meta_rev_at_epoch": 611,
        "meta_bstar": 0,
        "meta_mean_motion_dot": -5.6e-07,
        "meta_mean_motion_ddot": 0,
        "tle_line1": "1 63130U 25042A   25348.72203245 -.00000056  00000+0  00000+0 0  9993",
        "tle_line2": "2 63130  64.9770  79.0784 0007690 217.9412 142.0178  2.13103043  6119"
      },
      "geometry": {
        "type": "Point",
        "coordinates": [
          37.040132833876704,
          -55.112678661646974
        ]
      }
    },
    {
      "type": "Feature",
      "properties": {
        "norad_id": 65590,
        "name": "COSMOS 2596 (708K)",
        "group": "glo-ops",
        "lat": 46.78583474395651,
        "lon": -8.528337673122088,
        "alt_km": 19135.174554400804,
        "timestamp": "2025-12-16T23:36:36.457618+00:00",
        "meta_object_name": "COSMOS 2596 (708K)",
        "meta_object_id": "2025-206B",
        "meta_epoch": "2025-12-16T02:29:28.552416",
        "meta_mean_motion": 2.13100546,
        "meta_eccentricity": 0.00140382,
        "meta_inclination": 64.7427,
        "meta_ra_of_asc_node": 321.3574,
        "meta_arg_of_pericenter": 306.6506,
        "meta_mean_anomaly": 151.812,
        "meta_ephemeris_type": 0,
        "meta_classification_type": "U",
        "meta_norad_cat_id": 65590,
        "meta_element_set_no": 999,
        "meta_rev_at_epoch": 201,
        "meta_bstar": 0,
        "meta_mean_motion_dot": -6.9e-07,
        "meta_mean_motion_ddot": 0,
        "tle_line1": "1 65590U 25206B   25350.10380269 -.00000069  00000+0  00000+0 0  9998",
        "tle_line2": "2 65590  64.7427 321.3574 0014038 306.6506 151.8120  2.13100546  2017"
      },
      "geometry": {
        "type": "Point",
        "coordinates": [
          -8.528337673122088,
          46.78583474395651
        ]
      }
    }
  ]
}